241P/LINEAR,e,21.0608,305.4925,111.0335,4.947168,0.0895714,0.61087187,312.0695,02/06.0/2020,2000,g 13.5,4.0
# From MPC 81861
242P/Spahr,e,32.4798,180.5082,246.3051,5.476069,0.0769132,0.27786642,221.8448,02/06.0/2020,2000,g  8.0,4.0
# From MPC111774
243P/NEAT,e,7.6415,87.6569,283.5367,3.831860,0.1313982,0.35963617,69.5060,02/06.0/2020,2000,g 12.5,4.0
# From MPC 88331
244P/Scotti,e,2.2590,353.9914,92.8442,4.895740,0.0909864,0.19812119,267.7258,02/06.0/2020,2000,g  9.0,4.0
# From MPC111774
245P/WISE,e,21.1967,316.6589,316.7836,4.041682,0.1213000,0.45771930,88.2080,02/06.0/2020,2000,g 14.0,4.0
# From MPC114608
246P/NEAT,e,15.9871,78.7489,176.2309,4.016309,0.1224513,0.28679101,313.1570,02/06.0/2020,2000,g 10.5,4.0
# From MPC112394
247P/LINEAR,e,13.6593,54.0124,47.4723,3.970327,0.1245847,0.62474582,53.6888,02/06.0/2020,2000,g 16.5,2.0
# From MPC 75730
248P/Gibbs,e,6.3464,207.7468,209.9411,5.989822,0.0672331,0.63779929,222.0630,02/06.0/2020,2000,g 14.0,4.0
# From MPC105243
249P/LINEAR,e,8.3969,239.1787,65.6072,2.761374,0.2147911,0.82010167,328.9621,02/06.0/2020,2000,g 15.5,4.0
# From MPC110497
250P/Larson,e,13.2703,73.6844,45.6503,3.746072,0.1359377,0.40586482,99.6488,02/06.0/2020,2000,g 14.5,4.0
# From MPC104795
251P/LINEAR,e,23.4104,219.4055,31.2437,3.509363,0.1499207,0.50565582,140.0883,02/06.0/2020,2000,g 16.5,2.0
# From MPC102956
252P/LINEAR,e,10.4124,190.9557,343.3252,3.049020,0.1851244,0.67209644,263.5644,02/06.0/2020,2000,g 17.5,4.0
# From MPC112394
253P/PANSTARRS,e,4.9418,146.8739,230.6685,3.468550,0.1525746,0.41322602,97.5396,02/06.0/2020,2000,g 14.5,4.0
# From MPC 81473
254P/McNaught,e,32.5621,129.1718,219.4158,4.621018,0.0992196,0.32111216,336.5564,02/06.0/2020,2000,g 11.0,4.0
# From NK 2214
255P/Levy,e,19.7580,279.1736,180.5329,2.976133,0.1919665,0.70430865,185.8955,02/06.0/2020,2000,g  9.0,4.0
# From MPC 84027
256P/LINEAR,e,27.6381,81.3491,124.3177,4.635753,0.0987469,0.41860563,248.4121,02/06.0/2020,2000,g 14.0,2.0
# From MPC114608
257P/Catalina,e,20.2243,207.7701,117.6584,3.763843,0.1349761,0.43088404,330.5976,02/06.0/2020,2000,g 11.5,4.0
# From MPC 79655
258P/PANSTARRS,e,6.7456,126.2470,26.1234,4.402991,0.1066799,0.20928296,345.6367,02/06.0/2020,2000,g 13.0,4.0
# From MPC106349
259P/Garradd,e,15.8877,51.4692,257.5449,2.731386,0.2183381,0.33829887,199.8774,02/06.0/2020,2000,g 15.5,4.0
# From MPC118098
260P/McNaught,e,15.0518,349.3524,18.3970,3.621939,0.1429856,0.60884535,21.3098,02/06.0/2020,2000,g 13.5,4.0
# From MPEC 2019-TG9
261P/Larson,e,6.0760,291.1626,67.1230,3.489040,0.1512325,0.42292414,35.1311,02/06.0/2020,2000,g 14.0,4.0
# From MPC 82322
262P/McNaught-Russell,e,29.1504,217.9163,171.0005,6.877819,0.0546422,0.81484306,143.3963,02/06.0/2020,2000,g 13.5,4.0
# From MPC 89018
263P/Gibbs,e,11.5502,105.8166,34.4464,3.056243,0.1844686,0.58904489,158.4046,02/06.0/2020,2000,g  9.0,4.0
# From MPC114608
264P/Larsen,e,25.1453,220.8974,346.6452,3.896465,0.1281439,0.37418948,23.7080,02/06.0/2020,2000,g 13.0,4.0
# From MPC 79870
265P/LINEAR,e,14.3579,343.0048,33.4114,4.252647,0.1123867,0.64794597,318.5303,02/06.0/2020,2000,g 14.5,4.0
# From MPEC 2019-TG9
266P/Christensen,e,3.4258,5.0058,97.8579,3.535559,0.1482576,0.33950272,349.0950,02/06.0/2020,2000,g 12.5,4.0
# From MPC114608
267P/LONEOS,e,6.1375,228.6755,114.0818,3.212331,0.1711882,0.61386725,96.4787,02/06.0/2020,2000,g 19.5,4.0
# From MPC 92277
268P/Bernardi,e,16.1292,127.5825,0.1276,4.553085,0.1014484,0.47048788,177.2577,02/06.0/2020,2000,g 14.0,4.0
# From MPC104795
269P/Jedicke,e,7.0704,241.7029,226.0137,7.082469,0.0522910,0.43075080,102.1082,02/06.0/2020,2000,g 10.0,4.0
# From MPC 88332
270P/Gehrels,e,2.9169,222.9598,209.9584,6.670709,0.0572066,0.46680643,139.2536,02/06.0/2020,2000,g  8.0,4.0
# From MPC 92277
271P/van Houten-Lemmon,e,6.8637,9.2930,36.5183,7.051105,0.0526403,0.39300504,126.4589,02/06.0/2020,2000,g 11.0,4.0
# From MPC 81862
272P/NEAT,e,18.0764,109.4661,28.0188,4.453163,0.1048821,0.45416745,266.3893,02/06.0/2020,2000,g 16.0,2.0
# From MPC 82723
273P/Pons-Gambart,e,136.7251,320.4003,20.2817,31.67014,0.0055301,0.97404170,0.0000,12/16.8153/2012,2000,g 11.5,4.0
# From MPC 88332
274P/Tombaugh-Tenagra,e,15.8177,81.3364,38.5359,4.370007,0.1078899,0.43865557,274.4567,02/06.0/2020,2000,g 13.0,4.0
# From MPC 81862
275P/Hermann,e,21.2908,348.7559,174.1182,5.770515,0.0711021,0.71274342,184.8533,02/06.0/2020,2000,g 17.0,4.0
# From MPC114609
276P/Vorobjov,e,14.8284,211.4838,200.0764,5.308508,0.0805834,0.26761785,216.7018,02/06.0/2020,2000,g 11.5,4.0
# From MPC105243
277P/LINEAR,e,16.7793,276.3460,152.2980,3.852007,0.1303687,0.50546846,317.2147,02/06.0/2020,2000,g 14.0,4.0
# From MPC105243
278P/McNaught,e,6.6850,15.4496,238.0776,3.692972,0.1388801,0.43484079,329.5783,02/06.0/2020,2000,g 14.0,4.0
# From MPC100285
279P/La Sagra,e,5.0506,346.2235,5.7557,3.576234,0.1457355,0.39780509,189.6147,02/06.0/2020,2000,g 14.0,4.0
# From MPC 89013
280P/Larsen,e,11.7736,131.4013,104.7898,4.528796,0.1022657,0.41818044,229.6270,02/06.0/2020,2000,g 12.5,4.0
# From MPC 83145
281P/MOSS,e,4.7198,87.1708,26.9565,4.868268,0.0917577,0.17148712,259.5988,02/06.0/2020,2000,g 11.0,4.0
# From MPC xxxxx
282P/,e,5.8094,9.3044,217.4602,4.245868,0.1126560,0.18940850,289.5254,02/06.0/2020,2000,g 13.5,2.0
# From MPEC 2013-M31
283P/Spacewatch,e,14.4539,161.1455,22.2790,4.139023,0.1170462,0.48513620,292.1107,02/06.0/2020,2000,g  9.0,4.0
# From MPC 93589
284P/McNaught,e,11.8585,144.2837,202.6876,3.674108,0.1399511,0.37580762,278.0577,02/06.0/2020,2000,g 13.0,4.0
# From MPC 85339
285P/LINEAR,e,25.0233,185.4820,178.4071,4.509135,0.1029353,0.61787323,249.6571,02/06.0/2020,2000,g 15.0,4.0
# From MPC 90771
286P/Christensen,e,17.0448,283.9646,24.7325,4.111983,0.1182026,0.42510136,262.3020,02/06.0/2020,2000,g 14.0,4.0
# From MPC 96868
287P/Christensen,e,16.3174,139.0367,188.8087,4.168700,0.1157986,0.27032843,215.9152,02/06.0/2020,2000,g 13.5,4.0
# From MPC xxxxx
288P/,e,3.2404,83.1867,280.7977,3.046999,0.1853087,0.20136560,219.7234,02/06.0/2020,2000,g 16.0,2.0
# From MPC118844
289P/Blanpain,e,5.8939,68.8937,9.8874,3.048827,0.1851419,0.68547723,8.7020,02/06.0/2020,2000,g  2.5,4.0
# From MPC 95214
290P/Jager,e,19.6319,302.9456,181.3155,6.135253,0.0648568,0.64751539,139.7622,02/06.0/2020,2000,g 10.5,4.0
# From MPC 89314
291P/NEAT,e,6.3429,238.2711,174.1661,4.503278,0.1031362,0.43741043,237.7003,02/06.0/2020,2000,g 13.0,4.0
# From MPC115887
292P/Li,e,24.2520,91.0028,319.4869,6.111532,0.0652347,0.58741829,143.3964,02/06.0/2020,2000,g 12.5,4.0
# From MPC 92278
293P/Spacewatch,e,9.0572,78.4112,41.0994,3.642864,0.1417554,0.41816723,315.0095,02/06.0/2020,2000,g 14.5,4.0
# From MPC 89013
294P/LINEAR,e,18.2150,312.5975,235.5343,3.204801,0.1717918,0.59419808,11.7288,02/06.0/2020,2000,g 15.5,4.0
# From MPC 93589
295P/LINEAR,e,21.0736,7.4209,72.9799,5.306426,0.0806308,0.61605816,169.3574,02/06.0/2020,2000,g 12.0,4.0
# From MPC 92278
296P/Garradd,e,25.2351,263.6404,350.1144,3.496782,0.1507305,0.47850077,326.0996,02/06.0/2020,2000,g 14.0,4.0
# From MPC102956
297P/Beshore,e,10.3286,97.6610,132.4460,3.443597,0.1542360,0.31939419,305.7571,02/06.0/2020,2000,g 15.0,4.0
# From MPC114609
298P/Christensen,e,7.8703,52.8302,100.6954,3.593786,0.1446691,0.38697201,329.1285,02/06.0/2020,2000,g 15.0,4.0
# From MPC101100
299P/Catalina-PANSTARRS,e,10.4779,271.6229,323.8951,4.383174,0.1074041,0.28218174,194.1043,02/06.0/2020,2000,g 11.5,4.0
# From MPC114609
300P/Catalina,e,5.6765,95.6700,222.8633,2.700039,0.2221514,0.69162218,102.3850,02/06.0/2020,2000,g 16.0,4.0
# From MPC 89014
301P/LINEAR-NEAT,e,10.3477,351.1801,193.7314,5.736975,0.0717265,0.58597842,142.3714,02/06.0/2020,2000,g 13.0,4.0
# From MPC115887
302P/Lemmon-PANSTARRS,e,6.0337,121.7535,208.1624,4.278152,0.1113832,0.22959316,153.2584,02/06.0/2020,2000,g 12.5,4.0
# From MPC 92278
303P/NEAT,e,7.0155,347.9718,356.8472,5.050405,0.0868390,0.50982130,168.4875,02/06.0/2020,2000,g 13.5,4.0
# From MPC 92987
304P/Ory,e,2.6069,58.9449,335.2016,3.151198,0.1761938,0.60054245,326.7962,02/06.0/2020,2000,g 16.5,4.0
# From MPC101100
305P/Skiff,e,11.6390,240.1399,147.2649,4.645623,0.0984324,0.69256580,187.9415,02/06.0/2020,2000,g 18.0,4.0
# From MPC 92278
306P/LINEAR,e,8.3104,341.3841,0.8010,3.121415,0.1787215,0.59317556,2.5272,02/06.0/2020,2000,g 19.0,4.0
# From MPC 92278
307P/LINEAR,e,4.4303,158.1186,222.1844,5.796216,0.0706297,0.67377525,132.4038,02/06.0/2020,2000,g 15.0,4.0
# From MPC109148
308P/Lagerkvist-Carsenty,e,4.8492,63.1180,333.6631,6.610025,0.0579962,0.36244707,100.8018,02/06.0/2020,2000,g 13.0,2.0
# From MPC 94284
309P/LINEAR,e,17.0257,10.1538,50.0077,4.370160,0.1078843,0.61764599,196.5641,02/06.0/2020,2000,g 15.0,4.0
# From MPC 98566
310P/Hill,e,13.1290,8.9311,31.9065,4.176922,0.1154568,0.42173703,203.2375,02/06.0/2020,2000,g 13.5,4.0
# From MPC109593
311P/PANSTARRS,e,4.9700,279.2275,144.5652,2.188453,0.3044375,0.11526825,285.5967,02/06.0/2020,2000,g 17.0,4.0
# From MPC 92279
312P/NEAT,e,19.7620,144.6807,207.5238,3.468642,0.1525685,0.42831836,324.6094,02/06.0/2020,2000,g 16.0,4.0
# From MPEC 2019-TG9
313P/Gibbs,e,10.9834,105.9723,254.5978,3.161185,0.1753594,0.23481121,347.8761,02/06.0/2020,2000,g 15.0,4.0
# From MPC105243
314P/Montani,e,3.9791,267.6193,214.2441,7.277844,0.0501996,0.41653599,60.9616,02/06.0/2020,2000,g  9.5,4.0
# From MPC115888
315P/LONEOS,e,17.8781,69.2801,65.6452,4.946379,0.0895928,0.52277259,103.7955,02/06.0/2020,2000,g 11.0,4.0
# From MPC 92279
316P/LONEOS-Christensen,e,9.8921,246.7714,193.9024,4.342591,0.1089132,0.16189530,169.7981,02/06.0/2020,2000,g 13.5,4.0
# From MPC102103
317P/WISE,e,11.9509,275.5196,334.8958,2.965589,0.1929913,0.57043818,314.9997,02/06.0/2020,2000,g 17.5,4.0
# From MPC102103
318P/McNaught-Hartley,e,17.8713,35.6671,313.0957,7.496584,0.0480185,0.67471294,75.2328,02/06.0/2020,2000,g  8.5,6.0
# From MPC 97499
319P/Catalina-McNaught,e,15.0949,111.3780,203.6033,3.569505,0.1461478,0.66636338,245.3501,02/06.0/2020,2000,g 15.0,4.0
# From MPC 96281
